SAUDISAT 1C             
1 27607U 02058C   20114.20231352  .00000020  00000-0  23470-4 0  9995
2 27607  64.5550 183.2950 0054957 191.8919 168.0890 14.75627663932705
SAUDISAT 2              
1 28371U 04025F   20114.81086953 -.00000085  00000-0 -90108-5 0  9998
2 28371  98.2743  64.2719 0025594   4.0466 356.0994 14.54376350839239
SAUDISAT 3              
1 31118U 07012B   20114.60343786 -.00000000  00000-0  79581-5 0  9995
2 31118  97.8644  74.8484 0015243 173.0478 187.0942 14.69160704697915
PISAT                   
1 41784U 16059B   20114.73428220  .00000090  00000-0  26251-4 0  9990
2 41784  98.0239 172.6988 0033176 124.7048 235.7288 14.63505411190908
FLYING LAPTOP           
1 42831U 17042G   20114.43667522  .00000209  00000-0  26346-4 0  9991
2 42831  97.5289 358.9007 0015567 106.5959 253.6971 14.91111163151098
